{"result":1,"code":0,"data":[{"id":"18149613240320000","code":"BH_00000","name":"华东区域","pinYin":"hdqy hdoy huadongquyu huadongouyu","organList":[{"id":"20019006144512001","organType":"1","code":"BH_000000","name":"正阳配送中心","pinYin":"zypszx zhengyangpeisongzhongxin","regionId":"18149613240320000"},{"id":"20019006144512005","organType":"1","code":"BH_000002","name":"某某配送中心2","pinYin":"mmpszx2 moumoupeisongzhongxin2","regionId":"18149613240320000"},{"id":"20019006144512007","organType":"1","code":"BH_000003","name":"某某配送中心3","pinYin":"mmpszx3 moumoupeisongzhongxin3","regionId":"18149613240320000"},{"id":"20019006144512009","organType":"1","code":"BH_000004","name":"某某配送中心4","pinYin":"mmpszx4 moumoupeisongzhongxin4","regionId":"18149613240320000"},{"id":"20019006144512011","organType":"1","code":"BH_000005","name":"某某配送中心5","pinYin":"mmpszx5 moumoupeisongzhongxin5","regionId":"18149613240320000"}]},{"id":"20385894498304000","code":"BH_00002","name":"华北区域","pinYin":"hbqy hboy huabeiouyu huabeiquyu","organList":[{"id":"20019006144512013","organType":"1","code":"BH_000006","name":"某某配送中心6","pinYin":"mmpszx6 moumoupeisongzhongxin6","regionId":"20385894498304000","organList":[{"id":"20023955423232011","organType":"1","code":"BH_000006","name":"某某仓库6","pinYin":"mmck6 moumoucangku6","organId":"20019006144512013"}]},{"id":"20019006144512015","organType":"1","code":"BH_000007","name":"某某配送中心7","pinYin":"mmpszx7 moumoupeisongzhongxin7","regionId":"20385894498304000","organList":[{"id":"20023955423232013","organType":"1","code":"BH_000007","name":"某某仓库7","pinYin":"mmck7 moumoucangku7","organId":"20019006144512015"}]},{"id":"20019006144512019","organType":"1","code":"BH_000009","name":"某某配送中心9","pinYin":"mmpszx9 moumoupeisongzhongxin9","regionId":"20385894498304000","organList":[{"id":"20023955423232017","organType":"1","code":"BH_000009","name":"某某仓库9","pinYin":"mmck9 moumoucangku9","organId":"20019006144512019"}]}]},{"id":"21090592096256000","code":"BH_00003","name":"华南区域","pinYin":"hnoy hnqy huananquyu huanaquyu huanaouyu huananouyu","organList":[{"id":"20019006144512003","organType":"1","code":"BH_000001","name":"某某配送中心1","pinYin":"mmpszx1 moumoupeisongzhongxin1","regionId":"21090592096256000","organList":[{"id":"20023955423232001","organType":"1","code":"BH_000001","name":"冷冻库","pinYin":"ldk lengdongku","organId":"20019006144512003","organList":[{"id":"20693504753664001","organType":"2","code":"DE_00000","name":"部门_1","pinYin":"bm_1 bumen_1","organId":"20019006144512003","fatherId":"20023955423232001"}]},{"id":"20023955423232003","organType":"1","code":"BH_000002","name":"某某仓库2","pinYin":"mmck2 moumoucangku2","organId":"20019006144512003","organList":[{"id":"20693504753664003","organType":"2","code":"DE_00002","name":"部门_3","pinYin":"bm_3 bumen_3","organId":"20019006144512003","fatherId":"20023955423232003"}]},{"id":"20023955423232005","organType":"1","code":"BH_000003","name":"某某仓库3","pinYin":"mmck3 moumoucangku3","organId":"20019006144512003","organList":[{"id":"20693504753664005","organType":"2","code":"DE_00004","name":"部门_5","pinYin":"bm_5 bumen_5","organId":"20019006144512003","fatherId":"20023955423232005"}]},{"id":"20023955423232007","organType":"1","code":"BH_000004","name":"某某仓库4","pinYin":"mmck4 moumoucangku4","organId":"20019006144512003","organList":[{"id":"20693504753664007","organType":"2","code":"DE_00006","name":"部门_7","pinYin":"bm_7 bumen_7","organId":"20019006144512003","fatherId":"20023955423232007"}]},{"id":"20023955423232009","organType":"1","code":"BH_000005","name":"某某仓库5","pinYin":"mmck5 moumoucangku5","organId":"20019006144512003","organList":[{"id":"20693504753664009","organType":"2","code":"DE_00008","name":"部门_9","pinYin":"bm_9 bumen_9","organId":"20019006144512003","fatherId":"20023955423232009"}]}]}],"regionList":[{"id":"21090592096256001","code":"BH_000031","name":"上海","pinYin":"sh shanghai","fatherId":"21090592096256000","organList":[{"id":"20019006144512017","organType":"1","code":"BH_000008","name":"某某配送中心8","pinYin":"mmpszx8 moumoupeisongzhongxin8","regionId":"21090592096256001","organList":[{"id":"20023955423232015","organType":"1","code":"BH_000008","name":"某某仓库8","pinYin":"mmck8 moumoucangku8","organId":"20019006144512017"}]}]},{"id":"22180440047616000","code":"BH_000032","name":"苏州","pinYin":"sz suzhou","fatherId":"21090592096256000"}]},{"id":"20019006144512021","organType":"1","code":"BH_0000010","name":"某某配送中心10","pinYin":"mmpszx10 moumoupeisongzhongxin10","organList":[{"id":"20023955423232019","organType":"1","code":"BH_0000010","name":"某某仓库10","pinYin":"mmck10 moumoucangku10","organId":"20019006144512021"}]}]}